ANSER FOLLOWER 2        
1 58018U 23155C   26064.82218127  .00022135  00000+0  60276-3 0  9993
2 58018  97.5578 150.2317 0000689 152.6950 207.4331 15.37516487133021
ANSER FOLLOWER 1        
1 58019U 23155D   26068.72729826  .00022200  00000+0  59271-3 0  9996
2 58019  97.5602 154.8565 0001359 113.4130 246.7257 15.38126463133626
