[{"OBJECT_NAME":"ANSER FOLLOWER 2","OBJECT_ID":"2023-155C","EPOCH":"2026-03-05T19:43:56.461728","MEAN_MOTION":15.37516487,"ECCENTRICITY":6.896e-5,"INCLINATION":97.5578,"RA_OF_ASC_NODE":150.2317,"ARG_OF_PERICENTER":152.695,"MEAN_ANOMALY":207.4331,"EPHEMERIS_TYPE":0,"CLASSIFICATION_TYPE":"U","NORAD_CAT_ID":58018,"ELEMENT_SET_NO":999,"REV_AT_EPOCH":13302,"BSTAR":0.00060275793,"MEAN_MOTION_DOT":0.00022135,"MEAN_MOTION_DDOT":0},{"OBJECT_NAME":"ANSER FOLLOWER 1","OBJECT_ID":"2023-155D","EPOCH":"2026-03-09T17:27:18.569664","MEAN_MOTION":15.38126463,"ECCENTRICITY":0.00013588,"INCLINATION":97.5602,"RA_OF_ASC_NODE":154.8565,"ARG_OF_PERICENTER":113.413,"MEAN_ANOMALY":246.7257,"EPHEMERIS_TYPE":0,"CLASSIFICATION_TYPE":"U","NORAD_CAT_ID":58019,"ELEMENT_SET_NO":999,"REV_AT_EPOCH":13362,"BSTAR":0.00059271098,"MEAN_MOTION_DOT":0.000222,"MEAN_MOTION_DDOT":0}]
